[{"OBJECT_NAME":"IRIDIUM 132","OBJECT_ID":"2017-061G","EPOCH":"2026-03-09T22:35:22.589952","MEAN_MOTION":14.34217397,"ECCENTRICITY":0.00019726,"INCLINATION":86.3913,"RA_OF_ASC_NODE":66.7375,"ARG_OF_PERICENTER":90.1934,"MEAN_ANOMALY":269.9487,"EPHEMERIS_TYPE":0,"CLASSIFICATION_TYPE":"U","NORAD_CAT_ID":42961,"ELEMENT_SET_NO":999,"REV_AT_EPOCH":44059,"BSTAR":-6.187907e-6,"MEAN_MOTION_DOT":2.0e-8,"MEAN_MOTION_DDOT":0},{"OBJECT_NAME":"FENGYUN 1C DEB","OBJECT_ID":"1999-025EQ","EPOCH":"2026-03-09T14:11:47.076576","MEAN_MOTION":14.19153894,"ECCENTRICITY":0.008556,"INCLINATION":98.6412,"RA_OF_ASC_NODE":113.336,"ARG_OF_PERICENTER":54.1938,"MEAN_ANOMALY":98.1855,"EPHEMERIS_TYPE":0,"CLASSIFICATION_TYPE":"U","NORAD_CAT_ID":29846,"ELEMENT_SET_NO":999,"REV_AT_EPOCH":99091,"BSTAR":0.00014498,"MEAN_MOTION_DOT":2.72e-6,"MEAN_MOTION_DDOT":0}]
